NORAD_CAT_ID,OBJECT_NAME,OBJECT_TYPE,EPOCH,MEAN_MOTION,ECCENTRICITY,INCLINATION,RA_OF_ASC_NODE,ARG_OF_PERICENTER,MEAN_ANOMALY,BSTAR,MEAN_MOTION_DOT,MEAN_MOTION_DDOT,TLE_LINE0,TLE_LINE1,TLE_LINE2,SEMIMAJOR_AXIS,PERIOD,APOGEE,PERIGEE,DECAYED
52537.0,STARLINK-3897,PAYLOAD,2024-05-05 13:15:52,15.08844756,0.0001164,53.2173,270.757,101.8794,258.2329,9.4325e-05,1.214e-05,0.0,0 STARLINK-3897,1 52537U 22051E   24126.55269206  .00001214  00000-0  94325-4 0  9997,2 52537  53.2173 270.7570 0001164 101.8794 258.2329 15.08844756109891,6917.866,95.437,540.536,538.926,0.0
52537.0,STARLINK-3897,PAYLOAD,2024-05-05 14:51:15,15.08845931,0.0001196,53.2182,270.4597,103.0269,257.0856,0.00010394,1.367e-05,0.0,0 STARLINK-3897,1 52537U 22051E   24126.61893158  .00001367  00000-0  10394-3 0  9995,2 52537  53.2182 270.4597 0001196 103.0269 257.0856 15.08845931109835,6917.862,95.437,540.555,538.9,0.0
52537.0,STARLINK-3897,PAYLOAD,2024-05-05 16:26:38,15.08849603,0.0001141,53.2184,270.1623,102.3646,257.7474,0.00010408,1.369e-05,0.0,0 STARLINK-3897,1 52537U 22051E   24126.68516960  .00001369  00000-0  10408-3 0  9993,2 52537  53.2184 270.1623 0001141 102.3646 257.7474 15.08849603109849,6917.851,95.437,540.505,538.927,0.0
52537.0,STARLINK-3897,PAYLOAD,2024-05-06 01:58:56,15.08860726,0.0001127,53.2194,268.3794,101.268,258.8439,0.00012985,1.78e-05,0.0,0 STARLINK-3897,1 52537U 22051E   24127.08259955  .00001780  00000-0  12985-3 0  9995,2 52537  53.2194 268.3794 0001127 101.2680 258.8439 15.08860726109974,6917.817,95.436,540.462,538.902,0.0
52537.0,STARLINK-3897,PAYLOAD,2024-05-06 13:06:40,15.08834369,0.0001201,53.2177,266.2969,96.4534,263.6595,0.00016357,2.316e-05,0.0,0 STARLINK-3897,1 52537U 22051E   24127.54629940  .00002316  00000-0  16357-3 0  9994,2 52537  53.2177 266.2969 0001201  96.4534 263.6595 15.08834369110043,6917.898,95.438,540.593,538.932,0.0
52537.0,STARLINK-3897,PAYLOAD,2024-05-06 14:42:03,15.0883771,0.0001216,53.2179,265.9997,95.4718,264.6413,0.00021767,3.178e-05,0.0,0 STARLINK-3897,1 52537U 22051E   24127.61253884  .00003178  00000-0  21767-3 0  9990,2 52537  53.2179 265.9997 0001216  95.4718 264.6413 15.08837710109985,6917.887,95.438,540.594,538.911,0.0
52537.0,STARLINK-3897,PAYLOAD,2024-05-06 16:17:26,15.08844499,0.0001128,53.2172,265.7036,95.1389,264.9732,0.00024856,3.671e-05,0.0,0 STARLINK-3897,1 52537U 22051E   24127.67877518  .00003671  00000-0  24856-3 0  9992,2 52537  53.2172 265.7036 0001128  95.1389 264.9732 15.08844499110063,6917.867,95.437,540.512,538.951,0.0
52537.0,STARLINK-3897,PAYLOAD,2024-05-07 12:57:27,15.0883231,8.58e-05,53.2178,261.8358,63.7048,296.4032,-0.00010963,-2.032e-05,0.0,0 STARLINK-3897,1 52537U 22051E   24128.53990089 -.00002032  00000-0 -10963-3 0  9993,2 52537  53.2178 261.8358 0000858  63.7048 296.4032 15.08832310110191,6917.904,95.438,540.362,539.175,0.0
52537.0,STARLINK-3897,PAYLOAD,2024-05-07 14:32:50,15.08830327,8.68e-05,53.217,261.5356,65.0987,295.0095,-0.00013634,-2.456e-05,0.0,0 STARLINK-3897,1 52537U 22051E   24128.60614215 -.00002456  00000-0 -13634-3 0  9993,2 52537  53.2170 261.5356 0000868  65.0987 295.0095 15.08830327110130,6917.91,95.438,540.375,539.174,0.0
52537.0,STARLINK-3897,PAYLOAD,2024-05-07 16:08:13,15.08825509,8.64e-05,53.2174,261.2399,78.528,281.5809,-0.00023461,-4.018e-05,0.0,0 STARLINK-3897,1 52537U 22051E   24128.67238291 -.00004018  00000-0 -23461-3 0  9991,2 52537  53.2174 261.2399 0000864  78.5280 281.5809 15.08825509110149,6917.925,95.438,540.387,539.192,0.0
52537.0,STARLINK-3897,PAYLOAD,2024-05-08 14:23:38,15.08842011,8.07e-05,53.2163,257.0751,77.6768,282.4315,0.00044823,6.853e-05,0.0,0 STARLINK-3897,1 52537U 22051E   24129.59974564  .00006853  00000-0  44823-3 0  9995,2 52537  53.2163 257.0751 0000807  77.6768 282.4315 15.08842011110284,6917.874,95.437,540.298,539.181,0.0
52537.0,STARLINK-3897,PAYLOAD,2024-05-08 15:59:01,15.0884964,8.61e-05,53.2167,256.7786,80.854,279.255,0.00065702,0.00010187,0.0,0 STARLINK-3897,1 52537U 22051E   24129.66598433  .00010187  00000-0  65702-3 0  9994,2 52537  53.2167 256.7786 0000861  80.8540 279.2550 15.08849640110365,6917.851,95.437,540.312,539.12,0.0
52537.0,STARLINK-3897,PAYLOAD,2024-05-09 12:39:01,15.08843732,8.57e-05,53.2165,252.9137,102.8426,257.2661,0.00017341,2.473e-05,0.0,0 STARLINK-3897,1 52537U 22051E   24130.52710330  .00002473  00000-0  17341-3 0  9998,2 52537  53.2165 252.9137 0000857 102.8426 257.2661 15.08843732110493,6917.869,95.437,540.327,539.141,0.0
52537.0,STARLINK-3897,PAYLOAD,2024-05-09 14:14:24,15.08848023,9.03e-05,53.2167,252.6167,98.3314,261.7781,0.00043794,6.69e-05,0.0,0 STARLINK-3897,1 52537U 22051E   24130.59334314  .00006690  00000-0  43794-3 0  9995,2 52537  53.2167 252.6167 0000903  98.3314 261.7781 15.08848023110437,6917.856,95.437,540.346,539.096,0.0
52537.0,STARLINK-3897,PAYLOAD,2024-05-09 15:49:48,15.08841001,8.23e-05,53.2165,252.3202,101.6846,258.4239,0.0017713,0.00028015,0.0,0 STARLINK-3897,1 52537U 22051E   24130.65958531  .00028015  00000-0  17713-2 0  9991,2 52537  53.2165 252.3202 0000823 101.6846 258.4239 15.08841001110442,6917.877,95.437,540.312,539.173,0.0
52537.0,STARLINK-3897,PAYLOAD,2024-05-10 14:05:12,15.08862097,0.0001025,53.2168,248.1585,74.0091,286.1014,0.0016333,0.00025817,0.0,0 STARLINK-3897,1 52537U 22051E   24131.58694539  .00025817  00000-0  16333-2 0  9993,2 52537  53.2168 248.1585 0001025  74.0091 286.1014 15.08862097110652,6917.813,95.436,540.387,538.969,0.0
52537.0,STARLINK-3897,PAYLOAD,2024-05-10 17:15:58,15.08853822,8.92e-05,53.217,247.5626,80.4737,279.6356,0.0009592,0.00015016,0.0,0 STARLINK-3897,1 52537U 22051E   24131.71942419  .00015016  00000-0  95920-3 0  9991,2 52537  53.2170 247.5626 0000892  80.4737 279.6356 15.08853822110677,6917.838,95.437,540.32,539.086,0.0
52537.0,STARLINK-3897,PAYLOAD,2024-05-11 13:55:56,15.08880924,0.0001209,53.2164,243.6977,93.2576,266.8555,-0.00058932,-9.665e-05,0.0,0 STARLINK-3897,1 52537U 22051E   24132.58051850 -.00009665  00000-0 -58932-3 0  9994,2 52537  53.2164 243.6977 0001209  93.2576 266.8555 15.08880924110809,6917.755,95.435,540.457,538.784,0.0
52537.0,STARLINK-3897,PAYLOAD,2024-05-12 13:46:53,15.08608262,8.98e-05,53.217,239.2376,114.3483,245.7603,0.00069216,0.00010676,0.0,0 STARLINK-3897,1 52537U 22051E   24133.57423363  .00010676  00000-0  69216-3 0  9995,2 52537  53.2170 239.2376 0000898 114.3483 245.7603 15.08608262110954,6918.589,95.452,541.075,539.833,0.0
52537.0,STARLINK-3897,PAYLOAD,2024-05-13 13:37:43,15.08887845,0.0001218,53.2171,234.7787,92.4366,267.6766,0.0021027,0.00033379,0.0,0 STARLINK-3897,1 52537U 22051E   24134.56786581  .00033379  00000-0  21027-2 0  9991,2 52537  53.2171 234.7787 0001218  92.4366 267.6766 15.08887845111101,6917.734,95.435,540.442,538.757,0.0
52537.0,STARLINK-3897,PAYLOAD,2024-05-14 13:28:25,15.08956604,0.000116,53.2164,230.318,90.9447,269.1678,0.0018615,0.00029557,0.0,0 STARLINK-3897,1 52537U 22051E   24135.56140575  .00029557  00000-0  18615-2 0  9991,2 52537  53.2164 230.3180 0001160  90.9447 269.1678 15.08956604111188,6917.524,95.43,540.191,538.587,0.0
52537.0,STARLINK-3897,PAYLOAD,2024-05-14 23:00:40,15.08996,0.0001345,53.2158,228.5293,359.4651,0.6339,0.0027128,0.00043337,0.0,0 STARLINK-3897,1 52537U 22051E   24135.95880680  .00043337  00000-0  27128-2 0  9993,2 52537  53.2158 228.5293 0001345 359.4651   0.6339 15.08996000111311,6917.404,95.428,540.199,538.338,0.0
52537.0,STARLINK-3897,PAYLOAD,2024-05-15 13:19:08,15.08876916,0.0001422,53.2164,225.8576,51.0367,309.0752,0.001633,0.00025823,0.0,0 STARLINK-3897,1 52537U 22051E   24136.55496308  .00025823  00000-0  16330-2 0  9993,2 52537  53.2164 225.8576 0001422  51.0367 309.0752 15.08876916111405,6917.768,95.435,540.616,538.649,0.0
52537.0,STARLINK-3897,PAYLOAD,2024-05-15 14:54:31,15.08878047,0.0001485,53.2165,225.5604,54.8884,305.2247,0.0020798,0.00033002,0.0,0 STARLINK-3897,1 52537U 22051E   24136.62120191  .00033002  00000-0  20798-2 0  9996,2 52537  53.2165 225.5604 0001485  54.8884 305.2247 15.08878047111346,6917.764,95.435,540.656,538.602,0.0
52537.0,STARLINK-3897,PAYLOAD,2024-05-15 22:51:26,15.0888601,0.0001458,53.2166,224.0689,59.1932,300.9204,0.0013653,0.00021535,0.0,0 STARLINK-3897,1 52537U 22051E   24136.95239301  .00021535  00000-0  13653-2 0  9996,2 52537  53.2166 224.0689 0001458  59.1932 300.9204 15.08886010111463,6917.74,95.435,540.613,538.596,0.0
52537.0,STARLINK-3897,PAYLOAD,2024-05-16 11:34:31,15.08864523,0.0001299,53.2157,221.6926,73.1924,286.921,0.00061354,9.497e-05,0.0,0 STARLINK-3897,1 52537U 22051E   24137.48231237  .00009497  00000-0  61354-3 0  9990,2 52537  53.2157 221.6926 0001299  73.1924 286.9210 15.08864523111544,6917.805,95.436,540.569,538.772,0.0
52537.0,STARLINK-3897,PAYLOAD,2024-05-17 11:25:18,15.08837822,0.0001004,53.2161,217.2309,97.0835,263.0271,0.0017262,0.0002729,0.0,0 STARLINK-3897,1 52537U 22051E   24138.47590978  .00027290  00000-0  17262-2 0  9999,2 52537  53.2161 217.2309 0001004  97.0835 263.0271 15.08837822111696,6917.887,95.438,540.447,539.057,0.0
52537.0,STARLINK-3897,PAYLOAD,2024-05-17 22:33:00,15.08873296,0.0001325,53.2151,215.1503,83.6855,276.4288,0.0021266,0.0003375,0.0,0 STARLINK-3897,1 52537U 22051E   24138.93958467  .00033750  00000-0  21266-2 0  9998,2 52537  53.2151 215.1503 0001325  83.6855 276.4288 15.08873296111698,6917.779,95.435,540.56,538.727,0.0
52537.0,STARLINK-3897,PAYLOAD,2024-05-18 11:16:05,15.08849262,0.0001264,53.2161,212.7705,105.9571,254.156,0.0020424,0.00032375,0.0,0 STARLINK-3897,1 52537U 22051E   24139.46950608  .00032375  00000-0  20424-2 0  9993,2 52537  53.2161 212.7705 0001264 105.9571 254.1560 15.08849262111840,6917.852,95.437,540.591,538.843,0.0
52537.0,STARLINK-3897,PAYLOAD,2024-05-18 14:26:51,15.08853885,0.0001447,53.2159,212.1746,104.336,255.7793,0.0020057,0.00031789,0.0,0 STARLINK-3897,1 52537U 22051E   24139.60198560  .00031789  00000-0  20057-2 0  9990,2 52537  53.2159 212.1746 0001447 104.3360 255.7793 15.08853885111793,6917.838,95.437,540.704,538.702,0.0
